{"type": "Feature", "properties": {"NOMBDEP": "PIURA", "COUNT": 64, "FIRST_IDDP": "20", "HECTARES": 3606506.675}, "geometry": {"type": "Polygon", "coordinates": [[[-79.21007036323203, -4.965242223249656], [-79.24508598825842, -5.001359348282793], [-79.29436123829554, -5.110480473383531], [-79.37840811335565, -5.190521473456542], [-79.3486523633356, -5.232576223496154], [-79.35904886334362, -5.288626973548089], [-79.32807223832219, -5.315914098573979], [-79.29769923830217, -5.458126973706727], [-79.27239648828441, -5.518982473763728], [-79.3983203633743, -5.537017598778263], [-79.37555073835958, -5.606189473842987], [-79.40068948837916, -5.749509723975731], [-79.3898203633723, -5.791089849014611], [-79.33406836333432, -5.893630849111026], [-79.41860936339506, -5.970099599180389], [-79.49893948844769, -5.915189474127525], [-79.60044923851106, -5.939570349147491], [-79.62641986352503, -5.887449224098346], [-79.63142773852653, -5.829029349043918], [-79.68271098855526, -5.846445349058528], [-79.73732811358329, -5.837650349048583], [-79.71728123857058, -5.73934759895799], [-79.78693361360153, -5.6465878488695], [-79.83293548862146, -5.645490223866772], [-79.86441986363151, -5.563419973789447], [-79.85398636362648, -5.531818348760535], [-79.90305486364332, -5.491449223721136], [-79.9458729886582, -5.514996098741152], [-79.96903723866754, -5.582210973802397], [-79.99483011368133, -5.751945348958449], [-80.1308632387153, -5.888665974077644], [-80.19891411372186, -5.892999974077376], [-80.32741411372082, -5.947441349118387], [-80.37621873871724, -6.006968724169357], [-80.62713286365211, -6.372080099480027], [-80.79791986350864, -6.288984349380743], [-80.91313473836394, -6.190584099272527], [-81.0915663630655, -6.082027349140668], [-81.1492597379333, -5.98124022403718], [-81.14928911291626, -5.889230473953702], [-81.09746098801197, -5.838173723917926], [-81.0684472380581, -5.785746098875862], [-81.02169723814796, -5.830556598925263], [-80.94314448827328, -5.845679723952578], [-80.8914882383394, -5.809820348928086], [-80.86124411337, -5.749665973877685], [-80.85254686336641, -5.635488223774531], [-80.89758398829228, -5.511453098654599], [-80.95847661319128, -5.423085973564646], [-81.05298048801542, -5.330990223465213], [-81.10815036290373, -5.314746098440636], [-81.13812111283143, -5.263617223388739], [-81.19455261269259, -5.212119098331194], [-81.13316211281114, -5.070277348214411], [-81.09066986290361, -5.081738223232296], [-81.06021873795848, -5.039283098198896], [-81.08641598789535, -4.967333973129207], [-81.17662498767623, -4.855363223011929], [-81.32810348723024, -4.681884722825915], [-81.30964848728291, -4.661818347811677], [-81.28244723733962, -4.52518947269414], [-81.30361336226956, -4.483249972652297], [-81.26714261236869, -4.434068347614986], [-81.24927923740663, -4.354816347546837], [-81.26065623736739, -4.310890722505221], [-81.23705273742455, -4.25067572245512], [-81.16858398759916, -4.210462722430141], [-81.10061523774966, -4.128935597366651], [-81.04141798787164, -4.087546847337321], [-80.97132223801057, -4.127117222382325], [-80.95472848804495, -4.173447222426565], [-80.8828222381637, -4.19280072245271], [-80.80330661327326, -4.175966847445973], [-80.70032036339256, -4.187800597466814], [-80.62322073846691, -4.231779347513922], [-80.56083011351058, -4.174701222466481], [-80.52434573853044, -4.107414097407347], [-80.48733198855084, -4.0831288473876], [-80.44932036357282, -4.125249972428938], [-80.43427348858373, -4.195937472495046], [-80.3712889886082, -4.197554722500514], [-80.32883011362199, -4.223132847526629], [-80.36717573861388, -4.282050722578687], [-80.42672461359489, -4.336583972625119], [-80.45377736358574, -4.385615222668454], [-80.43879298859669, -4.456439472734748], [-80.38954298861746, -4.486111347765427], [-80.29001948864078, -4.434638722724099], [-80.19486136364769, -4.346361347647633], [-80.1787051136466, -4.30377734760907], [-80.10424023864454, -4.290956972600616], [-79.99176948863193, -4.379960972687596], [-79.92069923861486, -4.385609347695392], [-79.87134961360056, -4.412982472722418], [-79.83984373859114, -4.467603472774063], [-79.79388473857428, -4.492982472799001], [-79.7087597385368, -4.471492222781422], [-79.65545898851009, -4.434160097748081], [-79.62814061349611, -4.439109347753328], [-79.56339061346195, -4.514269472824548], [-79.49793948842351, -4.521228472832306], [-79.4793906134129, -4.572849597880632], [-79.48824998841916, -4.625990222929841], [-79.39249998836038, -4.831640598122693], [-79.32070111331167, -4.886853473175187], [-79.26303923827123, -4.968660098252109], [-79.21007036323203, -4.965242223249656]]]}}